{
  "type": "FeatureCollection",
  "features": [
    {
      "type": "Feature",
      "properties": {
        "norad_id": 30022,
        "name": "FENGYUN 1C DEB",
        "group": "fengyun-1c-debris",
        "lat": 60.713445341922856,
        "lon": -169.7622371511837,
        "alt_km": 856.4653828218452,
        "timestamp": "2025-12-24T07:45:06.472864+00:00",
        "meta_object_name": "FENGYUN 1C DEB",
        "meta_object_id": "1999-025MX",
        "meta_epoch": "2025-12-23T01:48:07.598880",
        "meta_mean_motion": 14.23136027,
        "meta_eccentricity": 0.00666642,
        "meta_inclination": 99.0716,
        "meta_ra_of_asc_node": 205.5029,
        "meta_arg_of_pericenter": 239.1168,
        "meta_mean_anomaly": 273.2585,
        "meta_ephemeris_type": 0,
        "meta_classification_type": "U",
        "meta_norad_cat_id": 30022,
        "meta_element_set_no": 999,
        "meta_rev_at_epoch": 98339,
        "meta_bstar": 6.7039023e-05,
        "meta_mean_motion_dot": 1.07e-06,
        "meta_mean_motion_ddot": 0,
        "tle_line1": "1 30022U 99025MX  25357.07508795  .00000107  00000+0  67039-4 0  9991",
        "tle_line2": "2 30022  99.0716 205.5029 0066664 239.1168 273.2585 14.23136027983395"
      },
      "geometry": {
        "type": "Point",
        "coordinates": [
          -169.7622371511837,
          60.713445341922856
        ]
      }
    },
    {
      "type": "Feature",
      "properties": {
        "norad_id": 30023,
        "name": "FENGYUN 1C DEB",
        "group": "fengyun-1c-debris",
        "lat": -61.65411675620202,
        "lon": -5.368271785538425,
        "alt_km": 889.0109716255392,
        "timestamp": "2025-12-24T07:45:06.472874+00:00",
        "meta_object_name": "FENGYUN 1C DEB",
        "meta_object_id": "1999-025MY",
        "meta_epoch": "2025-12-23T12:08:52.802880",
        "meta_mean_motion": 14.11877875,
        "meta_eccentricity": 0.00470076,
        "meta_inclination": 99.2936,
        "meta_ra_of_asc_node": 191.4553,
        "meta_arg_of_pericenter": 33.8297,
        "meta_mean_anomaly": 20.0514,
        "meta_ephemeris_type": 0,
        "meta_classification_type": "U",
        "meta_norad_cat_id": 30023,
        "meta_element_set_no": 999,
        "meta_rev_at_epoch": 97348,
        "meta_bstar": 0.00034539585,
        "meta_mean_motion_dot": 5.9e-06,
        "meta_mean_motion_ddot": 0,
        "tle_line1": "1 30023U 99025MY  25357.50616670  .00000590  00000+0  34540-3 0  9998",
        "tle_line2": "2 30023  99.2936 191.4553 0047007  33.8297  20.0514 14.11877875973488"
      },
      "geometry": {
        "type": "Point",
        "coordinates": [
          -5.368271785538425,
          -61.65411675620202
        ]
      }
    },
    {
      "type": "Feature",
      "properties": {
        "norad_id": 30028,
        "name": "FENGYUN 1C DEB",
        "group": "fengyun-1c-debris",
        "lat": 3.8915413980322744,
        "lon": 170.82719872420714,
        "alt_km": 591.1228182360055,
        "timestamp": "2025-12-24T07:45:06.472885+00:00",
        "meta_object_name": "FENGYUN 1C DEB",
        "meta_object_id": "1999-025ND",
        "meta_epoch": "2025-12-23T11:45:16.593696",
        "meta_mean_motion": 14.55523654,
        "meta_eccentricity": 0.01747053,
        "meta_inclination": 98.1462,
        "meta_ra_of_asc_node": 349.4557,
        "meta_arg_of_pericenter": 194.852,
        "meta_mean_anomaly": 298.2766,
        "meta_ephemeris_type": 0,
        "meta_classification_type": "U",
        "meta_norad_cat_id": 30028,
        "meta_element_set_no": 999,
        "meta_rev_at_epoch": 99878,
        "meta_bstar": 0.00025765643,
        "meta_mean_motion_dot": 1.324e-05,
        "meta_mean_motion_ddot": 0,
        "tle_line1": "1 30028U 99025ND  25357.48977539  .00001324  00000+0  25766-3 0  9990",
        "tle_line2": "2 30028  98.1462 349.4557 0174705 194.8520 298.2766 14.55523654998786"
      },
      "geometry": {
        "type": "Point",
        "coordinates": [
          170.82719872420714,
          3.8915413980322744
        ]
      }
    },
    {
      "type": "Feature",
      "properties": {
        "norad_id": 30035,
        "name": "FENGYUN 1C DEB",
        "group": "fengyun-1c-debris",
        "lat": -63.74917192805496,
        "lon": -66.63053339399139,
        "alt_km": 779.9996687172616,
        "timestamp": "2025-12-24T07:45:06.472895+00:00",
        "meta_object_name": "FENGYUN 1C DEB",
        "meta_object_id": "1999-025NL",
        "meta_epoch": "2025-12-23T12:51:14.101632",
        "meta_mean_motion": 14.36980138,
        "meta_eccentricity": 0.01152587,
        "meta_inclination": 99.2716,
        "meta_ra_of_asc_node": 273.1779,
        "meta_arg_of_pericenter": 30.6978,
        "meta_mean_anomaly": 154.2516,
        "meta_ephemeris_type": 0,
        "meta_classification_type": "U",
        "meta_norad_cat_id": 30035,
        "meta_element_set_no": 999,
        "meta_rev_at_epoch": 99278,
        "meta_bstar": 8.3104004e-05,
        "meta_mean_motion_dot": 2.12e-06,
        "meta_mean_motion_ddot": 0,
        "tle_line1": "1 30035U 99025NL  25357.53557988  .00000212  00000+0  83104-4 0  9992",
        "tle_line2": "2 30035  99.2716 273.1779 0115258  30.6978 154.2516 14.36980138992780"
      },
      "geometry": {
        "type": "Point",
        "coordinates": [
          -66.63053339399139,
          -63.74917192805496
        ]
      }
    },
    {
      "type": "Feature",
      "properties": {
        "norad_id": 30036,
        "name": "FENGYUN 1C DEB",
        "group": "fengyun-1c-debris",
        "lat": 47.87917175747661,
        "lon": 15.884042901467664,
        "alt_km": 807.1363977780074,
        "timestamp": "2025-12-24T07:45:06.472905+00:00",
        "meta_object_name": "FENGYUN 1C DEB",
        "meta_object_id": "1999-025NM",
        "meta_epoch": "2025-12-23T01:55:19.794144",
        "meta_mean_motion": 14.46215175,
        "meta_eccentricity": 0.01904728,
        "meta_inclination": 98.2518,
        "meta_ra_of_asc_node": 23.9088,
        "meta_arg_of_pericenter": 176.0972,
        "meta_mean_anomaly": 247.1216,
        "meta_ephemeris_type": 0,
        "meta_classification_type": "U",
        "meta_norad_cat_id": 30036,
        "meta_element_set_no": 999,
        "meta_rev_at_epoch": 99326,
        "meta_bstar": 0.00035659206,
        "meta_mean_motion_dot": 1.548e-05,
        "meta_mean_motion_ddot": 0,
        "tle_line1": "1 30036U 99025NM  25357.08009021  .00001548  00000+0  35659-3 0  9997",
        "tle_line2": "2 30036  98.2518  23.9088 0190472 176.0972 247.1216 14.46215175993260"
      },
      "geometry": {
        "type": "Point",
        "coordinates": [
          15.884042901467664,
          47.87917175747661
        ]
      }
    },
    {
      "type": "Feature",
      "properties": {
        "norad_id": 30037,
        "name": "FENGYUN 1C DEB",
        "group": "fengyun-1c-debris",
        "lat": -58.92785902811461,
        "lon": -12.137115145342534,
        "alt_km": 762.7313877891111,
        "timestamp": "2025-12-24T07:45:06.472915+00:00",
        "meta_object_name": "FENGYUN 1C DEB",
        "meta_object_id": "1999-025NN",
        "meta_epoch": "2025-12-23T05:17:58.854912",
        "meta_mean_motion": 14.34132893,
        "meta_eccentricity": 0.0173946,
        "meta_inclination": 98.3847,
        "meta_ra_of_asc_node": 332.6255,
        "meta_arg_of_pericenter": 24.0293,
        "meta_mean_anomaly": 350.9266,
        "meta_ephemeris_type": 0,
        "meta_classification_type": "U",
        "meta_norad_cat_id": 30037,
        "meta_element_set_no": 999,
        "meta_rev_at_epoch": 98938,
        "meta_bstar": 0.00021645557,
        "meta_mean_motion_dot": 6.71e-06,
        "meta_mean_motion_ddot": 0,
        "tle_line1": "1 30037U 99025NN  25357.22082008  .00000671  00000+0  21646-3 0  9997",
        "tle_line2": "2 30037  98.3847 332.6255 0173946  24.0293 350.9266 14.34132893989386"
      },
      "geometry": {
        "type": "Point",
        "coordinates": [
          -12.137115145342534,
          -58.92785902811461
        ]
      }
    },
    {
      "type": "Feature",
      "properties": {
        "norad_id": 30038,
        "name": "FENGYUN 1C DEB",
        "group": "fengyun-1c-debris",
        "lat": -11.218212420801288,
        "lon": 164.01473506535044,
        "alt_km": 862.1973412346742,
        "timestamp": "2025-12-24T07:45:06.472925+00:00",
        "meta_object_name": "FENGYUN 1C DEB",
        "meta_object_id": "1999-025NP",
        "meta_epoch": "2025-12-23T22:47:20.662944",
        "meta_mean_motion": 14.39319277,
        "meta_eccentricity": 0.0257927,
        "meta_inclination": 98.3694,
        "meta_ra_of_asc_node": 345.3229,
        "meta_arg_of_pericenter": 69.2578,
        "meta_mean_anomaly": 345.5508,
        "meta_ephemeris_type": 0,
        "meta_classification_type": "U",
        "meta_norad_cat_id": 30038,
        "meta_element_set_no": 999,
        "meta_rev_at_epoch": 99052,
        "meta_bstar": 0.00026757526,
        "meta_mean_motion_dot": 1.177e-05,
        "meta_mean_motion_ddot": 0,
        "tle_line1": "1 30038U 99025NP  25357.94954471  .00001177  00000+0  26758-3 0  9990",
        "tle_line2": "2 30038  98.3694 345.3229 0257927  69.2578 345.5508 14.39319277990523"
      },
      "geometry": {
        "type": "Point",
        "coordinates": [
          164.01473506535044,
          -11.218212420801288
        ]
      }
    }
  ]
}